#cP2013  1 22  0  0  0.00000000      96 __u+U IGS08 FIT  IAC
## 1724 172800.00000000   900.00000000 56314 0.0000000000000
+   24   R 1R 2R 3R 4R 5R 6R 7R 8R 9R10R11R12R13R14R15R16R17
+        R18R19R20R21R22R23R24  0  0  0  0  0  0  0  0  0  0
+          0  0  0  0  0  0  0  0  0  0  0  0  0  0  0  0  0
+          0  0  0  0  0  0  0  0  0  0  0  0  0  0  0  0  0
+          0  0  0  0  0  0  0  0  0  0  0  0  0  0  0  0  0
++         0  0  0  0  0  0  0  0  0  0  0  0  0  0  0  0  0
++         0  0  0  0  0  0  0  0  0  0  0  0  0  0  0  0  0
++         0  0  0  0  0  0  0  0  0  0  0  0  0  0  0  0  0
++         0  0  0  0  0  0  0  0  0  0  0  0  0  0  0  0  0
++         0  0  0  0  0  0  0  0  0  0  0  0  0  0  0  0  0
%c R  cc GPS ccc cccc cccc cccc cccc ccccc ccccc ccccc ccccc
%c cc cc ccc ccc cccc cccc cccc cccc ccccc ccccc ccccc ccccc
%f  1.2500000  1.025000000  0.00000000000  0.000000000000000
%f  0.0000000  0.000000000  0.00000000000  0.000000000000000
%i    0    0    0    0      0      0      0      0         0
%i    0    0    0    0      0      0      0      0         0
/* INFORMATION & ANALYSIS CENTER (IAC)            FINAL DATA
/* S/V CLOCKS ARE ALIGNED TO GPS & GLONASS TIME RESPECTIVELY
/* USING THE BROADCAST EPHEMERIS                            
/* PCV:IGS08_1722 OL/AL:FES2004  NONE     YN ORB:CoN CLK:CoN
*  2013 01 22 20  0  0.00000000
PR 1 -19216.087608   8215.429081 -14613.257094   -174.647785
PR 2   -941.686858  11212.495526 -22894.149484   -358.334479
PR 3  16474.023990   7520.830088 -17928.084936   -120.801772
PR 4  25391.881909   -456.250873  -2397.914867     28.936884
PR 5  19357.279274  -8169.862667  14457.903599   -171.833931
PR 6   1663.187437 -11132.208917  22868.544649     24.070179
PR 7 -16461.439287  -7555.553158  17990.387789    -50.057656
PR 8 -11794.225155 -22092.242335  -4792.736301 999999.999999
PR 9   6775.110280 -22702.328060  -9336.017341    -18.444133
PR10  -3898.650390 -13531.742854 -21300.400397    -51.489161
PR11 -13009.149564   4124.470536 -21565.702036    -51.057870
PR12 -14335.512179  19157.218855  -8633.304730    -93.598164
PR13  -6662.794858  22845.331610   9168.193286   -377.319500
PR14   4027.234837  13341.131377  21333.160587      5.463758
PR15  13343.588296  -5764.836394  20943.646084      2.811253
PR16  14264.520694 -19565.696506   8133.260224     -9.403812
PR17  15049.142108  20362.272615  -3211.010719     55.892330
PR18  15593.762555   8199.753112 -18377.392517    -50.233270
PR19   6103.597048 -10082.956830 -22621.929948    -46.603771
PR20  -6649.155793 -21282.697018 -12435.813215    -24.098665
PR21 -14974.287506 -20333.042318   3222.621989      3.411954
PR22 -15795.354412  -8596.680889  18160.244338     71.878646
PR23  -7053.948437   8824.698717  22863.868038   -476.431422
PR24   5333.656198  20423.037275  14302.374474    -86.964061
*  2013 01 22 20 15  0.00000000
PR 1 -20841.139602   8473.331705 -12003.198573   -174.647350
PR 2  -3723.694036  11499.863641 -22462.417714   -358.336617
PR 3  14143.652225   7656.554397 -19763.848440   -120.801193
PR 4  24887.957829   -554.196283  -5561.495877     28.937803
PR 5  20963.999602  -8428.900385  11834.329890   -171.833664
PR 6   4443.442390 -11415.913266  22350.053588     24.070115
PR 7 -14136.357817  -7687.397962  19820.889383    -50.059374
PR 8 -11468.401641 -21362.910108  -7887.789925 999999.999999
PR 9   7044.621104 -23642.688109  -6295.930067    -18.443338
PR10  -2938.562183 -15879.257720 -19785.110125    -51.488113
PR11 -11821.452607   1672.110638 -22549.258349    -51.057012
PR12 -13669.661828  18092.710785 -11542.421270    -93.597556
PR13  -6886.230211  23782.835067   6114.225638   -377.320689
PR14   3055.357442  15699.802801  19831.469403      5.462130
PR15  12165.175603  -3375.088075  22157.144762      2.811934
PR16  13611.941635 -18561.339161  11060.219571     -9.403636
PR17  15298.269588  20433.669056     -2.241691     55.893852
PR18  16903.599947   9902.607739 -16252.909433    -50.234889
PR19   7676.474944  -7742.631648 -23061.028766    -46.604764
PR20  -5807.560692 -19806.189016 -15021.383257    -24.100887
PR21 -15216.082406 -20408.538009      4.939821      3.412426
PR22 -17097.264792 -10252.077014  16005.109832     71.880338
PR23  -8674.803184   6495.765110  23084.955465   -476.434471
PR24   4329.817295  18786.394335  16682.898718    -86.964711
*  2013 01 22 20 30  0.00000000
PR 1 -22112.113148   8793.047825  -9159.742273   -174.647359
PR 2  -6399.410538  11971.794448 -21594.477254   -358.338759
PR 3  11629.316931   7994.256731 -21214.535861   -120.800879
PR 4  24000.650967   -552.308064  -8617.026273     28.938140
PR 5  22215.080200  -8748.046508   8980.828369   -171.833576
PR 6   7106.788546 -11883.969445  21396.454216     24.070125
PR 7 -11628.483018  -8020.849013  21267.440592    -50.059576
PR 8 -10855.440754 -20371.116013 -10829.419544 999999.999999
PR 9   7105.313454 -24243.992066  -3132.853999    -18.442871
PR10  -2234.207354 -18096.797862 -17886.944558    -51.487629
PR11 -10788.543366   -951.483419 -23095.260776    -51.056699
PR12 -12958.812787  16661.005126 -14225.655487    -93.596504
PR13  -6904.687902  24375.676292   2941.411934   -377.322107
PR14   2338.634856  17930.588587  17943.241541      5.460233
PR15  11129.411065   -788.643241  22940.014779      2.812283
PR16  12910.323723 -17188.022043  13773.046240     -9.403352
PR17  15304.234519  20179.550408   3206.576452     55.894897
PR18  18158.166250  11285.719919 -13810.760891    -50.236489
PR19   9434.066388  -5503.961835 -23052.319038    -46.605882
PR20  -4673.054422 -18160.429360 -17315.838901    -24.103056
PR21 -15213.961495 -20156.673625  -3212.841180      3.412044
PR22 -18338.924878 -11586.354931  13541.166057     71.881482
PR23 -10462.061437   4292.375872  22857.434733   -476.437995
PR24   3036.326645  17015.634880  18738.887981    -86.965200
*  2013 01 22 20 45  0.00000000
PR 1 -23005.006278   9121.575226  -6138.144622   -174.646737
PR 2  -8905.698005  12602.973332 -20307.098731   -358.340742
PR 3   8996.742585   8548.645652 -22251.835790   -120.801038
PR 4  22759.662410   -402.171619 -11505.127268     28.938976
PR 5  23087.238178  -9074.221367   5952.873909   -171.833516
PR 6   9590.266894 -12509.728474  20026.251188     24.070448
PR 7  -9003.178050  -8570.632845  22302.094897    -50.060231
PR 8  -9933.708137 -19171.076835 -13560.408807     54.894024
PR 9   7002.994574 -24472.429189     91.445400    -18.442799
PR10  -1774.785102 -20118.163260 -15642.769429    -51.486674
PR11  -9944.310949  -3684.036112 -23192.792028    -51.056405
PR12 -12261.059872  14882.260548 -16630.803188    -93.595286
PR13  -6765.366071  24591.094583   -288.568391   -377.323339
PR14   1866.739349  19966.531299  15705.123817      5.458102
PR15  10274.086268   1934.042337  23277.469602      2.812498
PR16  12217.397585 -15463.569021  16219.028588     -9.402493
PR17  15026.795078  19638.496235   6353.255085     55.896161
PR18  19295.505711  12339.232783 -11098.584008    -50.237851
PR19  11332.768608  -3422.262371 -22595.986807    -46.607019
PR20  -3244.652397 -16408.717067 -19274.595853    -24.104778
PR21 -14927.493957 -19616.054437  -6367.836242      3.411226
PR22 -19459.210971 -12591.573977  10816.139766     71.882807
PR23 -12368.693359   2266.702890  22185.702229   -476.441710
PR24   1459.412903  15175.240436  20430.285306    -86.965579
*  2013 01 22 21  0  0.00000000
PR 1 -23508.686656   9403.472162  -2997.152259   -174.646551
PR 2 -11185.966329  13357.798557 -18625.205180   -358.343094
PR 3   6314.609830   9322.307911 -22855.510511   -120.800683
PR 4  21205.973490    -62.264591 -14169.664625     28.939444
PR 5  23570.071929  -9352.029017   2809.308465   -171.833863
PR 6  11837.818369 -13256.329798  18266.082828     24.070165
PR 7  -6328.692677  -9339.422613  22904.864902    -50.060975
PR 8  -8693.730208 -17822.225637 -16027.647620     54.898613
PR 9   6789.622673 -24306.361732   3313.954525    -18.442375
PR10  -1537.430552 -21882.322422 -13096.088660    -51.486491
PR11  -9311.267921  -6457.839201 -22839.627580    -51.055916
PR12 -11630.815580  12789.297310 -18711.246863    -93.594314
PR13  -6521.353072  24408.653367  -3512.943075   -377.324110
PR14   1617.164120  21745.789396  13160.644620      5.455049
PR15   9625.867786   4726.312504  23163.384244      2.813163
PR16  11587.593009 -13418.505477  18350.538494     -9.402418
PR17  14435.637843  18858.039038   9376.847338     55.897204
PR18  20255.051821  13066.391635  -8169.358940    -50.239434
PR19  13320.142244  -1544.155235 -21700.903227    -46.607745
PR20  -1534.205237 -14615.249266 -20859.535308    -24.106541
PR21 -14326.300444 -18834.396005  -9398.416408      3.412288
PR22 -20398.601968 -13272.657808   7882.690792     71.883968
PR23 -14339.616041    461.517876  21082.788618   -476.444810
PR24   -381.945008  13329.113622  21724.126991    -86.966564
EOF
